NORAD_CAT_ID,OBJECT_NAME,OBJECT_TYPE,EPOCH,MEAN_MOTION,ECCENTRICITY,INCLINATION,RA_OF_ASC_NODE,ARG_OF_PERICENTER,MEAN_ANOMALY,BSTAR,MEAN_MOTION_DOT,MEAN_MOTION_DDOT,TLE_LINE0,TLE_LINE1,TLE_LINE2,SEMIMAJOR_AXIS,PERIOD,APOGEE,PERIGEE,DECAYED
53852.0,STARLINK-4797,PAYLOAD,2024-01-16 19:17:41,15.08839592,0.0001276,53.2153,203.5626,95.0,265.1138,5.5214e-06,-2e-06,0.0,0 STARLINK-4797,1 53852U 22114AL  24016.80395128 -.00000200  00000-0  55214-5 0  9997,2 53852  53.2153 203.5626 0001276  95.0000 265.1138 15.08839592 74858,6917.882,95.438,540.629,538.864,0.0
53852.0,STARLINK-4797,PAYLOAD,2024-01-16 22:28:27,15.08840866,0.0001258,53.2154,202.9681,91.1407,268.9729,1.3587e-05,-7.2e-07,0.0,0 STARLINK-4797,1 53852U 22114AL  24016.93643010 -.00000072  00000-0  13587-4 0  9990,2 53852  53.2154 202.9681 0001258  91.1407 268.9729 15.08840866 74876,6917.878,95.437,540.613,538.872,0.0
53852.0,STARLINK-4797,PAYLOAD,2024-01-17 17:33:05,15.08837933,0.0001243,53.2155,199.3995,91.0122,269.1012,3.5797e-05,2.82e-06,0.0,0 STARLINK-4797,1 53852U 22114AL  24017.73131241  .00000282  00000-0  35797-4 0  9996,2 53852  53.2155 199.3995 0001243  91.0122 269.1012 15.08837933 74454,6917.887,95.438,540.612,538.892,0.0
53852.0,STARLINK-4797,PAYLOAD,2024-01-18 12:37:43,15.08838083,0.0001206,53.2156,195.8311,90.1775,269.9355,5.848e-05,6.43e-06,0.0,0 STARLINK-4797,1 53852U 22114AL  24018.52619316  .00000643  00000-0  58480-4 0  9993,2 53852  53.2156 195.8311 0001206  90.1775 269.9355 15.08838083 75110,6917.886,95.438,540.586,538.917,0.0
53852.0,STARLINK-4797,PAYLOAD,2024-01-18 18:59:15,15.08840626,0.0001207,53.2157,194.6417,89.6973,270.4157,7.5495e-05,9.14e-06,0.0,0 STARLINK-4797,1 53852U 22114AL  24018.79115138  .00000914  00000-0  75495-4 0  9991,2 53852  53.2157 194.6417 0001207  89.6973 270.4157 15.08840626 74616,6917.878,95.438,540.578,538.908,0.0
53852.0,STARLINK-4797,PAYLOAD,2024-01-19 20:25:25,15.08841843,0.000125,53.2161,189.8832,85.7515,274.362,6.9561e-05,8.19e-06,0.0,0 STARLINK-4797,1 53852U 22114AL  24019.85099124  .00000819  00000-0  69561-4 0  9996,2 53852  53.2161 189.8832 0001250  85.7515 274.3620 15.08841843 75313,6917.875,95.437,540.604,538.875,0.0
53852.0,STARLINK-4797,PAYLOAD,2024-01-20 17:05:27,15.0883589,0.0001411,53.2169,186.0175,81.0238,279.0914,-4.2184e-06,-3.55e-06,0.0,0 STARLINK-4797,1 53852U 22114AL  24020.71212004 -.00000355  00000-0 -42184-5 0  9997,2 53852  53.2169 186.0175 0001411  81.0238 279.0914 15.08835890 74907,6917.893,95.438,540.734,538.782,0.0
53852.0,STARLINK-4797,PAYLOAD,2024-01-21 16:56:13,15.08849332,0.000147,53.2168,181.56,74.9938,285.1217,4.9978e-05,5.08e-06,0.0,0 STARLINK-4797,1 53852U 22114AL  24021.70571124  .00000508  00000-0  49978-4 0  9993,2 53852  53.2168 181.5600 0001470  74.9938 285.1217 15.08849332 75059,6917.852,95.437,540.734,538.7,0.0
53852.0,STARLINK-4797,PAYLOAD,2024-01-22 10:25:28,15.08834981,0.0001534,53.2167,178.2908,79.4642,280.6523,0.00016374,2.319e-05,0.0,0 STARLINK-4797,1 53852U 22114AL  24022.43435525  .00002319  00000-0  16374-3 0  9993,2 53852  53.2167 178.2908 0001534  79.4642 280.6523 15.08834981 75161,6917.896,95.438,540.822,538.7,0.0
53852.0,STARLINK-4797,PAYLOAD,2024-01-22 16:47:00,15.0884042,0.0001435,53.2169,177.1001,91.9653,268.1504,4.7966e-05,4.76e-06,0.0,0 STARLINK-4797,1 53852U 22114AL  24022.69931582  .00000476  00000-0  47966-4 0  9999,2 53852  53.2169 177.1001 0001435  91.9653 268.1504 15.08840420 75745,6917.879,95.438,540.737,538.751,0.0
53852.0,STARLINK-4797,PAYLOAD,2024-01-23 16:37:47,15.0884746,0.0001493,53.2172,172.6391,99.3233,260.7928,5.1696e-05,5.35e-06,0.0,0 STARLINK-4797,1 53852U 22114AL  24023.69290909  .00000535  00000-0  51696-4 0  9992,2 53852  53.2172 172.6391 0001493  99.3233 260.7928 15.08847460 75357,6917.858,95.437,540.755,538.69,0.0
53852.0,STARLINK-4797,PAYLOAD,2024-01-24 14:53:12,15.08835444,0.0001495,53.2179,168.4747,112.1021,248.013,-8.0175e-06,-4.16e-06,0.0,0 STARLINK-4797,1 53852U 22114AL  24024.62027910 -.00000416  00000-0 -80175-5 0  9991,2 53852  53.2179 168.4747 0001495 112.1021 248.0130 15.08835444 76032,6917.894,95.438,540.794,538.725,0.0
53852.0,STARLINK-4797,PAYLOAD,2024-01-25 14:43:59,15.088384,0.0001513,53.2175,164.0136,113.0366,247.0786,-0.00011237,-2.076e-05,0.0,0 STARLINK-4797,1 53852U 22114AL  24025.61388508 -.00002076  00000-0 -11237-3 0  9999,2 53852  53.2175 164.0136 0001513 113.0366 247.0786 15.08838400 76182,6917.885,95.438,540.797,538.704,0.0
53852.0,STARLINK-4797,PAYLOAD,2024-01-25 16:19:22,15.08836702,0.0001249,53.2168,163.7174,93.8638,266.2497,-7.2493e-05,-1.441e-05,0.0,0 STARLINK-4797,1 53852U 22114AL  24025.68012574 -.00001441  00000-0 -72493-4 0  9990,2 53852  53.2168 163.7174 0001249  93.8638 266.2497 15.08836702 75651,6917.89,95.438,540.62,538.891,0.0
53852.0,STARLINK-4797,PAYLOAD,2024-01-26 14:34:46,15.08838893,0.0001254,53.2166,159.5548,81.2754,278.838,0.00014332,1.994e-05,0.0,0 STARLINK-4797,1 53852U 22114AL  24026.60748141  .00001994  00000-0  14332-3 0  9997,2 53852  53.2166 159.5548 0001254  81.2754 278.8380 15.08838893 76332,6917.884,95.438,540.616,538.881,0.0
53852.0,STARLINK-4797,PAYLOAD,2024-01-26 19:20:55,15.08847199,0.0001328,53.2173,158.66,84.1893,275.925,0.00021163,3.082e-05,0.0,0 STARLINK-4797,1 53852U 22114AL  24026.80619470  .00003082  00000-0  21163-3 0  9991,2 53852  53.2173 158.6600 0001328  84.1893 275.9250 15.08847199 75823,6917.858,95.437,540.642,538.805,0.0
53852.0,STARLINK-4797,PAYLOAD,2024-01-27 12:50:11,15.08836109,0.0001395,53.2161,155.3948,62.1242,297.9891,5.873e-05,6.47e-06,0.0,0 STARLINK-4797,1 53852U 22114AL  24027.53484977  .00000647  00000-0  58730-4 0  9999,2 53852  53.2161 155.3948 0001395  62.1242 297.9891 15.08836109 75933,6917.892,95.438,540.722,538.792,0.0
53852.0,STARLINK-4797,PAYLOAD,2024-01-27 14:25:33,15.08840436,0.0001278,53.2163,155.0953,81.4532,278.6605,7.1408e-05,8.49e-06,0.0,0 STARLINK-4797,1 53852U 22114AL  24027.60108599  .00000849  00000-0  71408-4 0  9991,2 53852  53.2163 155.0953 0001278  81.4532 278.6605 15.08840436 76482,6917.879,95.438,540.628,538.86,0.0
53852.0,STARLINK-4797,PAYLOAD,2024-01-27 16:00:56,15.08840268,0.0001296,53.2164,154.798,82.9072,277.2067,7.4045e-05,8.91e-06,0.0,0 STARLINK-4797,1 53852U 22114AL  24027.66732611  .00000891  00000-0  74045-4 0  9992,2 53852  53.2164 154.7980 0001296  82.9072 277.2067 15.08840268 76495,6917.88,95.438,540.641,538.848,0.0
53852.0,STARLINK-4797,PAYLOAD,2024-01-28 14:16:21,15.08843633,0.0001587,53.2173,150.6363,73.3578,286.7588,-5.6177e-05,-1.182e-05,0.0,0 STARLINK-4797,1 53852U 22114AL  24028.59468997 -.00001182  00000-0 -56177-4 0  9990,2 53852  53.2173 150.6363 0001587  73.3578 286.7588 15.08843633 76631,6917.869,95.437,540.832,538.636,0.0
53852.0,STARLINK-4797,PAYLOAD,2024-01-28 15:51:44,15.0884586,0.0001578,53.2169,150.3385,73.3582,286.7584,-3.6165e-05,-8.64e-06,0.0,0 STARLINK-4797,1 53852U 22114AL  24028.66092777 -.00000864  00000-0 -36165-4 0  9998,2 53852  53.2169 150.3385 0001578  73.3582 286.7584 15.08845860 76104,6917.862,95.437,540.819,538.636,0.0
53852.0,STARLINK-4797,PAYLOAD,2024-01-29 17:17:53,15.08845872,0.0001581,53.2169,145.5798,74.4542,285.6624,0.00010697,1.415e-05,0.0,0 STARLINK-4797,1 53852U 22114AL  24029.72076125  .00001415  00000-0  10697-3 0  9997,2 53852  53.2169 145.5798 0001581  74.4542 285.6624 15.08845872 76263,6917.862,95.437,540.821,538.634,0.0
53852.0,STARLINK-4797,PAYLOAD,2024-01-30 12:22:31,15.08839834,0.0001442,53.217,142.0089,91.3861,268.7296,1.0479e-05,-1.21e-06,0.0,0 STARLINK-4797,1 53852U 22114AL  24030.51564788 -.00000121  00000-0  10479-4 0  9996,2 53852  53.2170 142.0089 0001442  91.3861 268.7296 15.08839834 76389,6917.881,95.438,540.743,538.748,0.0
53852.0,STARLINK-4797,PAYLOAD,2024-01-30 13:57:55,15.08840739,0.0001452,53.2169,141.7112,93.7867,266.3291,1.5232e-05,-4.6e-07,0.0,0 STARLINK-4797,1 53852U 22114AL  24030.58188702 -.00000046  00000-0  15232-4 0  9999,2 53852  53.2169 141.7112 0001452  93.7867 266.3291 15.08840739 76939,6917.878,95.438,540.748,538.739,0.0
53852.0,STARLINK-4797,PAYLOAD,2024-01-31 12:13:18,15.08863032,0.0001334,53.2168,137.5491,94.6445,265.4699,-0.00031857,-5.358e-05,0.0,0 STARLINK-4797,1 53852U 22114AL  24031.50924556 -.00005358  00000-0 -31857-3 0  9999,2 53852  53.2168 137.5491 0001334  94.6445 265.4699 15.08863032 77071,6917.81,95.436,540.598,538.752,0.0
53852.0,STARLINK-4797,PAYLOAD,2024-01-31 16:59:29,15.08792935,0.0002107,53.217,136.6552,116.0485,244.0725,0.00068739,0.00010655,0.0,0 STARLINK-4797,1 53852U 22114AL  24031.70797709  .00010655  00000-0  68739-3 0  9992,2 53852  53.2170 136.6552 0002107 116.0485 244.0725 15.08792935 76563,6918.024,95.441,541.347,538.432,0.0
53852.0,STARLINK-4797,PAYLOAD,2024-02-01 12:04:06,15.08836261,0.000161,53.217,133.0864,109.7839,250.3326,5.6023e-05,6.04e-06,0.0,0 STARLINK-4797,1 53852U 22114AL  24032.50284980  .00000604  00000-0  56023-4 0  9990,2 53852  53.2170 133.0864 0001610 109.7839 250.3326 15.08836261 76681,6917.892,95.438,540.871,538.643,0.0
53852.0,STARLINK-4797,PAYLOAD,2024-02-02 11:54:53,15.08841202,0.0001633,53.2174,128.6252,110.3782,249.7386,8.2077e-05,1.019e-05,0.0,0 STARLINK-4797,1 53852U 22114AL  24033.49644740  .00001019  00000-0  82077-4 0  9992,2 53852  53.2174 128.6252 0001633 110.3782 249.7386 15.08841202 77372,6917.877,95.437,540.871,538.612,0.0
53852.0,STARLINK-4797,PAYLOAD,2024-02-03 13:21:03,15.08837718,0.0001311,53.2167,123.8736,97.9293,262.1847,1.6257e-05,-2.9e-07,0.0,0 STARLINK-4797,1 53852U 22114AL  24034.55629483 -.00000029  00000-0  16257-4 0  9995,2 53852  53.2167 123.8736 0001311  97.9293 262.1847 15.08837718 77534,6917.887,95.438,540.659,538.845,0.0
53852.0,STARLINK-4797,PAYLOAD,2024-02-03 14:56:26,15.08842028,0.0001251,53.2161,123.5711,90.1648,269.9487,-2.8838e-05,-7.47e-06,0.0,0 STARLINK-4797,1 53852U 22114AL  24034.62253328 -.00000747  00000-0 -28838-4 0  9990,2 53852  53.2161 123.5711 0001251  90.1648 269.9487 15.08842028 77007,6917.874,95.437,540.605,538.874,0.0
